H1 CPF  2  HTS 2026  7 14 12  195  1 beaconc    NONE
H2  6503201 0317     1328 2026 07 14  0  0  0 2026 07 19  0  0  0   180 1 1  0 0 0 1
H5  0.2700
H9
10 0 61237   85320.00000  0      -1031066.077       6302017.928       3600770.124
10 0 61237   85500.00000  0      -2123958.145       6381640.762       2965203.155
10 0 61237   85680.00000  0      -3148625.886       6283158.441       2233195.951
10 0 61237   85860.00000  0      -4077586.801       6009449.922       1429202.153
10 0 61237   86040.00000  0      -4887032.838       5568482.366        579604.822
10 0 61237   86220.00000  0      -5557416.790       4972882.873       -288304.166
10 0 61238       0.00000  0      -6073813.002       4239368.587      -1147305.047
10 0 61238     180.00000  0      -6426066.731       3388087.424      -1971142.839
10 0 61238     360.00000  0      -6608760.840       2441914.888      -2735302.472
10 0 61238     540.00000  0      -6621034.206       1425746.056      -3417650.736
10 0 61238     720.00000  0      -6466291.057        365813.071      -3998943.312
10 0 61238     900.00000  0      -6151838.937       -710954.111      -4463205.529
10 0 61238    1080.00000  0      -5688486.166      -1777517.212      -4798000.930
10 0 61238    1260.00000  0      -5090121.854      -2807267.970      -4994603.556
10 0 61238    1440.00000  0      -4373296.932      -3774520.714      -5048091.580
10 0 61238    1620.00000  0      -3556815.021      -4654970.613      -4957376.849
10 0 61238    1800.00000  0      -2661334.877      -5426128.607      -4725180.176
10 0 61238    1980.00000  0      -1708981.449      -6067743.480      -4357958.019
10 0 61238    2160.00000  0       -722958.267      -6562218.835      -3865780.898
10 0 61238    2340.00000  0        272847.946      -6895028.815      -3262159.553
10 0 61238    2520.00000  0       1254280.750      -7055131.401      -2563810.588
10 0 61238    2700.00000  0       2197354.800      -7035371.144      -1790350.445
10 0 61238    2880.00000  0       3078730.368      -6832857.216       -963906.494
10 0 61238    3060.00000  0       3876227.581      -6449296.277       -108632.782
10 0 61238    3240.00000  0       4569376.113      -5891245.207        749879.539
10 0 61238    3420.00000  0       5139984.659      -5170252.560       1585295.709
10 0 61238    3600.00000  0       5572712.978      -4302856.287       2371327.747
10 0 61238    3780.00000  0       5855622.783      -3310404.604       3082603.393
10 0 61238    3960.00000  0       5980675.034      -2218670.557       3695585.553
10 0 61238    4140.00000  0       5944133.256      -1057243.336       4189499.120
10 0 61238    4320.00000  0       5746833.712        141300.626       4547211.548
10 0 61238    4500.00000  0       5394290.029       1342424.527       4756010.174
10 0 61238    4680.00000  0       4896608.068       2510814.813       4808217.996
10 0 61238    4860.00000  0       4268201.155       3611660.918       4701597.919
10 0 61238    5040.00000  0       3527310.887       4611958.626       4439509.788
10 0 61238    5220.00000  0       2695353.724       5481757.884       4030800.883
10 0 61238    5400.00000  0       1796131.443       6195273.816       3489430.992
10 0 61238    5580.00000  0        854957.248       6731795.820       2833860.375
10 0 61238    5760.00000  0       -102249.685       7076345.296       2086241.789
10 0 61238    5940.00000  0      -1049844.989       7220052.958       1271477.335
10 0 61238    6120.00000  0      -1963263.552       7160255.915        416207.730
10 0 61238    6300.00000  0      -2819711.428       6900340.691       -452202.829
10 0 61238    6480.00000  0      -3598723.009       6449369.590      -1306634.630
10 0 61238    6660.00000  0      -4282572.574       5821536.020      -2121089.831
10 0 61238    6840.00000  0      -4856541.936       5035502.829      -2871445.582
10 0 61238    7020.00000  0      -5309061.490       4113679.693      -3536071.069
10 0 61238    7200.00000  0      -5631746.782       3081479.585      -4096310.921
10 0 61238    7380.00000  0      -5819356.111       1966585.964      -4536843.412
10 0 61238    7560.00000  0      -5869692.808        798248.962      -4845929.088
10 0 61238    7740.00000  0      -5783472.507       -393378.630      -5015566.560
10 0 61238    7920.00000  0      -5564173.634      -1577865.951      -5041572.965
10 0 61238    8100.00000  0      -5217881.041      -2725095.077      -4923600.971
10 0 61238    8280.00000  0      -4753130.167      -3805825.924      -4665102.390
10 0 61238    8460.00000  0      -4180753.324      -4792247.245      -4273243.950
10 0 61238    8640.00000  0      -3513724.093      -5658523.594      -3758774.571
10 0 61238    8820.00000  0      -2766993.009      -6381345.280      -3135839.377
10 0 61238    9000.00000  0      -1957304.292      -6940483.989      -2421732.044
10 0 61238    9180.00000  0      -1102981.300      -7319350.876      -1636573.981
10 0 61238    9360.00000  0       -223667.210      -7505545.154       -802907.308
10 0 61238    9540.00000  0        659990.840      -7491372.055         54808.622
10 0 61238    9720.00000  0       1526722.743      -7274303.045        910802.839
10 0 61238    9900.00000  0       2355087.857      -6857345.422       1738702.577
10 0 61238   10080.00000  0       3124000.196      -6249276.302       2512341.563
10 0 61238   10260.00000  0       3813311.469      -5464693.462       3206641.493
10 0 61238   10440.00000  0       4404429.918      -4523853.785       3798531.267
10 0 61238   10620.00000  0       4880952.303      -3452274.229       4267865.085
10 0 61238   10800.00000  0       5229275.674      -2280077.519       4598287.880
10 0 61238   10980.00000  0       5439148.406      -1041086.310       4777988.040
10 0 61238   11160.00000  0       5504116.218        228304.770       4800278.298
10 0 61238   11340.00000  0       5421826.385       1490422.140       4663957.702
10 0 61238   11520.00000  0       5194167.326       2707702.080       4373421.334
10 0 61238   11700.00000  0       4827227.397       3844093.905       3938501.561
10 0 61238   11880.00000  0       4331072.596       4866389.903       3374048.757
10 0 61238   12060.00000  0       3719357.831       5745403.495       2699281.121
10 0 61238   12240.00000  0       3008799.335       6456925.810       1936947.525
10 0 61238   12420.00000  0       2218550.563       6982417.042       1112366.478
10 0 61238   12600.00000  0       1369521.811       7309412.425        252405.641
10 0 61238   12780.00000  0        483690.743       7431646.731       -615532.280
10 0 61238   12960.00000  0       -416556.490       7348929.238      -1464462.705
10 0 61238   13140.00000  0      -1309026.405       7066814.115      -2268673.651
10 0 61238   13320.00000  0      -2172245.583       6596112.620      -3004456.908
10 0 61238   13500.00000  0      -2985903.923       5952297.225      -3650702.389
10 0 61238   13680.00000  0      -3731214.203       5154847.016      -4189357.592
10 0 61238   13860.00000  0      -4391197.682       4226571.924      -4605764.334
10 0 61238   14040.00000  0      -4950908.440       3192942.237      -4888887.426
10 0 61238   14220.00000  0      -5397611.852       2081441.011      -5031454.152
10 0 61238   14400.00000  0      -5720932.092        920943.756      -5030020.452
10 0 61238   14580.00000  0      -5912979.672       -258874.071      -4884975.737
10 0 61238   14760.00000  0      -5968469.726      -1428107.964      -4600496.749
10 0 61238   14940.00000  0      -5884835.607      -2557184.279      -4184452.822
10 0 61238   15120.00000  0      -5662338.552      -3617417.854      -3648261.476
10 0 61238   15300.00000  0      -5304169.966      -4581577.020      -3006689.931
10 0 61238   15480.00000  0      -4816537.450      -5424462.703      -2277593.509
10 0 61238   15660.00000  0      -4208721.319      -6123502.830      -1481579.274
10 0 61238   15840.00000  0      -3493084.670      -6659357.102       -641582.765
10 0 61238   16020.00000  0      -2685015.924      -7016518.904        217653.512
10 0 61238   16200.00000  0      -1802781.802      -7183890.450       1070205.678
10 0 61238   16380.00000  0       -867271.703      -7155300.287       1889695.658
10 0 61238   16560.00000  0         98382.151      -6929927.535       2650109.534
10 0 61238   16740.00000  0       1069320.037      -6512590.517       3326687.419
10 0 61238   16920.00000  0       2019604.089      -5913853.419       3896849.055
10 0 61238   17100.00000  0       2922986.068      -5149915.737       4341105.568
10 0 61238   17280.00000  0       3753762.392      -4242261.580       4643903.565
10 0 61238   17460.00000  0       4487678.050      -3217063.633       4794347.788
10 0 61238   17640.00000  0       5102832.622      -2104350.596       4786747.114
10 0 61238   17820.00000  0       5580533.266       -936966.796       4620936.451
10 0 61238   18000.00000  0       5906032.777        250623.956       4302338.215
10 0 61238   18180.00000  0       6069101.910       1423613.966       3841755.826
10 0 61238   18360.00000  0       6064403.995       2548132.018       3254909.973
10 0 61238   18540.00000  0       5891648.033       3592449.615       2561749.537
10 0 61238   18720.00000  0       5555519.983       4528043.174       1785587.828
10 0 61238   18900.00000  0       5065409.679       5330456.870        952124.897
10 0 61238   19080.00000  0       4434964.569       5979933.569         88422.270
10 0 61238   19260.00000  0       3681512.065       6461799.583       -778107.671
10 0 61238   19440.00000  0       2825402.054       6766614.301      -1620641.721
10 0 61238   19620.00000  0       1889313.923       6890116.179      -2413779.725
10 0 61238   19800.00000  0        897565.645       6833000.731      -3134250.422
10 0 61238   19980.00000  0       -124546.078       6600573.390      -3761481.198
10 0 61238   20160.00000  0      -1151356.995       6202318.556      -4278035.031
10 0 61238   20340.00000  0      -2157389.791       5651421.159      -4669925.896
99
